{
    "links": {
        "self": "http://www.neowsapp.com/rest/v1/neo/54097670?api_key=iIulBulltgU6a56xZRHN4H3l9WmuAYTsLGpBGhQ2"
    },
    "id": "54097670",
    "neo_reference_id": "54097670",
    "name": "(2020 WU5)",
    "designation": "2020 WU5",
    "nasa_jpl_url": "http://ssd.jpl.nasa.gov/sbdb.cgi?sstr=54097670",
    "absolute_magnitude_h": 18.71,
    "estimated_diameter": {
        "kilometers": {
            "estimated_diameter_min": 0.4814541966,
            "estimated_diameter_max": 1.0765643117
        },
        "meters": {
            "estimated_diameter_min": 481.4541966183,
            "estimated_diameter_max": 1076.564311691
        },
        "miles": {
            "estimated_diameter_min": 0.2991616756,
            "estimated_diameter_max": 0.6689458429
        },
        "feet": {
            "estimated_diameter_min": 1579.5741864332,
            "estimated_diameter_max": 3532.0352563685
        }
    },
    "is_potentially_hazardous_asteroid": false,
    "close_approach_data": [
        {
            "close_approach_date": "2021-01-13",
            "close_approach_date_full": "2021-Jan-13 16:02",
            "epoch_date_close_approach": 1610553720000,
            "relative_velocity": {
                "kilometers_per_second": "21.5860604026",
                "kilometers_per_hour": "77709.817449464",
                "miles_per_hour": "48285.8585146406"
            },
            "miss_distance": {
                "astronomical": "0.053935804",
                "lunar": "20.981027756",
                "kilometers": "8068681.39513748",
                "miles": "5013646.133078024"
            },
            "orbiting_body": "Earth"
        },
        {
            "close_approach_date": "2021-07-11",
            "close_approach_date_full": "2021-Jul-11 12:42",
            "epoch_date_close_approach": 1626007320000,
            "relative_velocity": {
                "kilometers_per_second": "20.70514848",
                "kilometers_per_hour": "74538.5345280767",
                "miles_per_hour": "46315.3466349596"
            },
            "miss_distance": {
                "astronomical": "0.1485661371",
                "lunar": "57.7922273319",
                "kilometers": "22225177.664287977",
                "miles": "13810085.0184370026"
            },
            "orbiting_body": "Earth"
        }
    ],
    "orbital_data": {
        "orbit_id": "2",
        "orbit_determination_date": "2020-12-07 05:26:59",
        "first_observation_date": "2020-11-29",
        "last_observation_date": "2020-12-05",
        "data_arc_in_days": 6,
        "observations_used": 29,
        "orbit_uncertainty": "9",
        "minimum_orbit_intersection": ".0526236",
        "jupiter_tisserand_invariant": "5.559",
        "epoch_osculation": "2459186.5",
        "eccentricity": ".1039701195651706",
        "semi_major_axis": "1.064183460230083",
        "inclination": "41.93134232678928",
        "ascending_node_longitude": "112.6782017488347",
        "orbital_period": "400.9804362327758",
        "perihelion_distance": ".9535401786306844",
        "perihelion_argument": "81.88230647831244",
        "aphelion_distance": "1.174826741829482",
        "perihelion_time": "2459305.993696549567",
        "mean_anomaly": "252.7186294623322",
        "mean_motion": ".8977994123160014",
        "equinox": "J2000",
        "orbit_class": {
            "orbit_class_type": "APO",
            "orbit_class_description": "Near-Earth asteroid orbits which cross the Earth’s orbit similar to that of 1862 Apollo",
            "orbit_class_range": "a (semi-major axis) > 1.0 AU; q (perihelion) < 1.017 AU"
        }
    },
    "is_sentry_object": false
}